QIANFAN-73              
1 63159U 25046A   26013.60111806  .00000161  00000+0  23062-3 0  9999
2 63159  88.9790 316.7290 0016556  36.5814 323.6464 13.50988090 51710
QIANFAN-74              
1 63160U 25046B   26013.58457187  .00000154  00000+0  21957-3 0  9996
2 63160  88.9790 316.6195 0001925  69.2801 290.8556 13.50985216 51778
QIANFAN-75              
1 63161U 25046C   26013.57175759  .00000178  00000+0  25720-3 0  9996
2 63161  88.9791 316.8549 0017816  38.9509 321.2922 13.50988220 51649
QIANFAN-76              
1 63162U 25046D   26013.56840001  .00000171  00000+0  24596-3 0  9998
2 63162  88.9790 316.8356 0015380  40.0997 320.1286 13.50990523 51655
QIANFAN-77              
1 63163U 25046E   26013.50825580  .00000354  00000+0  24816-3 0  9996
2 63163  88.9790 314.5885 0014907 350.4127   9.6763 13.96120330 52881
QIANFAN-78              
1 63164U 25046F   26013.60931018  .00000174  00000+0  25108-3 0  9997
2 63164  88.9789 316.6951 0016792  41.6515 318.5911 13.50989397 51737
QIANFAN-79              
1 63165U 25046G   26013.56389288  .00000179  00000+0  25850-3 0  9998
2 63165  88.9793 316.8085 0016476  40.3498 319.8873 13.50986417 51672
QIANFAN-80              
1 63166U 25046H   26013.58043392  .00000170  00000+0  24370-3 0  9991
2 63166  88.9791 316.5129 0015502  44.3012 315.9377 13.50989250 51834
